HERMES-2                
1 63243U 25052AK  26068.92847372  .00009456  00000+0  34839-3 0  9999
2 63243  97.4004 324.4926 0006340  99.4160 260.7796 15.28021069 54859
STARLINK-34029          
1 63805U 25092B   26068.31763039  .00028942  00000+0  10565-2 0  9997
2 63805  42.9979 175.0003 0001862 278.4208  81.6432 15.27599019 48552
